SatCatId,ObjectName,LaunchYear,OrbitalPeriod,LaunchMass,StatusCode,Inclination,Status,UcsData,OrbitClassEstimated,LaunchSiteCountry,Owner,UseType,Purpose,LaunchVehicleClass,TLE1,TLE2,MeanMotion,Eccentricity,OrbitClass
53411,STARLINK-4497,2022,95.44,260.0,+,53.22,Active,1,LEO,USA,USA,Commercial,Communications,Falcon,1 53411U 22097Z   25067.67435149 -.00002247  00000+0 -12311-3 0  9990,2 53411  53.2188 317.2299 0001142  85.0894 275.0228 15.08843169142905,15.08843169,0.0001142,LEO
53412,STARLINK-4496,2022,95.44,260.0,+,53.22,Active,1,LEO,USA,USA,Commercial,Communications,Falcon,1 53412U 22097AA  25067.85467985 -.00000237  00000+0  31815-5 0  9992,2 53412  53.2177 316.4185 0001199  89.6009 270.5121 15.08831341142933,15.08831341,0.0001199,LEO
53413,STARLINK-4500,2022,95.44,260.0,+,53.22,Active,1,LEO,USA,USA,Commercial,Communications,Falcon,1 53413U 22097AB  25067.39834947 -.00002931  00000+0 -16609-3 0  9994,2 53413  53.2186 318.4662 0001201  98.4058 261.7070 15.08850171142861,15.08850171,0.0001201,LEO
53414,STARLINK-4304,2022,95.44,260.0,+,53.22,Active,1,LEO,USA,USA,Commercial,Communications,Falcon,1 53414U 22097AC  25066.98987257  .00000730  00000+0  63926-4 0  9990,2 53414  53.2184 320.2963 0001391  94.9211 265.1940 15.08837995143287,15.08837995,0.0001391,LEO
53415,STARLINK-4479,2022,95.44,260.0,+,53.22,Active,1,LEO,USA,USA,Commercial,Communications,Falcon,1 53415U 22097AD  25067.11867036  .00000001  00000+0  18152-4 0  9991,2 53415  53.2191 319.7221 0001279  91.5071 268.6068 15.08843393143286,15.08843393,0.0001279,LEO
53416,STARLINK-4480,2022,95.44,260.0,+,53.22,Active,1,LEO,USA,USA,Commercial,Communications,Falcon,1 53416U 22097AE  25067.10395546  .00006174  00000+0  40564-3 0  9991,2 53416  53.2177 319.7396 0001339  92.8337 267.2809 15.08841451143281,15.08841451,0.0001339,LEO
53417,STARLINK-4484,2022,95.44,260.0,+,53.22,Active,1,LEO,USA,USA,Commercial,Communications,Falcon,1 53417U 22097AF  25066.98251468  .00001116  00000+0  88198-4 0  9998,2 53417  53.2200 320.3343 0001322  90.5944 269.5200 15.08831344143268,15.08831344,0.0001322,LEO
53418,STARLINK-4481,2022,95.44,260.0,+,53.22,Active,1,LEO,USA,USA,Commercial,Communications,Falcon,1 53418U 22097AG  25067.80404130  .00001931  00000+0  13943-3 0  9997,2 53418  53.2164 306.2116 0001403  97.5952 262.5199 15.08823309143076,15.08823309,0.0001403,LEO
53419,STARLINK-4476,2022,95.44,260.0,+,53.22,Active,1,LEO,USA,USA,Commercial,Communications,Falcon,1 53419U 22097AH  25067.83995438  .00002901  00000+0  20030-3 0  9990,2 53419  53.2169 316.4833 0001445  88.0052 272.1106 15.08839607142930,15.08839607,0.0001445,LEO
53420,STARLINK-4552,2022,95.44,260.0,+,53.22,Active,1,LEO,USA,USA,Commercial,Communications,Falcon,1 53420U 22097AJ  25067.10026466  .00002161  00000+0  15381-3 0  9999,2 53420  53.2179 319.8043 0001485  89.2881 270.8281 15.08848502143282,15.08848502,0.0001485,LEO
53421,STARLINK-4545,2022,95.44,260.0,+,53.22,Active,1,LEO,USA,USA,Commercial,Communications,Falcon,1 53421U 22097AK  25067.10763359  .00003305  00000+0  22572-3 0  9990,2 53421  53.2189 319.7695 0001620 101.7110 258.4064 15.08824268143286,15.08824268,0.000162,LEO
53422,STARLINK-4546,2022,95.44,260.0,+,53.22,Active,1,LEO,USA,USA,Commercial,Communications,Falcon,1 53422U 22097AL  25067.09290712  .00002413  00000+0  16959-3 0  9998,2 53422  53.2165 319.8425 0001339  87.1383 272.9763 15.08852192143306,15.08852192,0.0001339,LEO
53423,STARLINK-4539,2022,95.44,260.0,+,53.22,Active,1,LEO,USA,USA,Commercial,Communications,Falcon,1 53423U 22097AM  25067.83355723  .00001199  00000+0  93440-4 0  9996,2 53423  53.2181 316.5238 0001388 101.0552 259.0596 15.08832595142932,15.08832595,0.0001388,LEO
53424,STARLINK-4532,2022,95.44,260.0,+,53.22,Active,1,LEO,USA,USA,Commercial,Communications,Falcon,1 53424U 22097AN  25067.08555044  .00004145  00000+0  27834-3 0  9999,2 53424  53.2168 319.8717 0001394  85.6695 274.4457 15.08845765143300,15.08845765,0.0001394,LEO
53425,STARLINK-4531,2022,95.44,260.0,+,53.22,Active,1,LEO,USA,USA,Commercial,Communications,Falcon,1 53425U 22097AP  25067.42779451  .00001389  00000+0  10535-3 0  9995,2 53425  53.2169 318.3345 0001532 100.1467 259.9698 15.08840095142874,15.08840095,0.0001532,LEO
53426,STARLINK-4558,2022,95.44,260.0,+,53.22,Active,1,LEO,USA,USA,Commercial,Communications,Falcon,1 53426U 22097AQ  25067.06441233  .00008504  00000+0  55166-3 0  9995,2 53426  53.2163 310.1233 0001449  79.3854 280.7302 15.08846261143437,15.08846261,0.0001449,LEO
53427,STARLINK-4541,2022,89.97,260.0,P,53.21,Active,1,LEO,USA,USA,Commercial,Communications,Falcon,1 53427U 22097AR  25066.06532816  .00549095  14459-3  10152-2 0  9990,2 53427  53.2123 293.9835 0004897 259.8576 253.2491 16.00600110143096,16.0060011,0.0004897,LEO
53429,STARLINK-4543,2022,95.44,260.0,+,53.22,Active,1,LEO,USA,USA,Commercial,Communications,Falcon,1 53429U 22097AT  25067.85561004  .00005467  00000+0  36126-3 0  9994,2 53429  53.2167 306.5312 0001424  87.2990 272.8165 15.08842748143078,15.08842748,0.0001424,LEO
53430,STARLINK-4538,2022,95.44,260.0,+,53.22,Active,1,LEO,USA,USA,Commercial,Communications,Falcon,1 53430U 22097AU  25067.84824929  .00003998  00000+0  26918-3 0  9998,2 53430  53.2173 306.4843 0001789  87.6570 272.4626 15.08835601143075,15.08835601,0.0001789,LEO
53431,STARLINK-4548,2022,95.44,260.0,+,53.22,Active,1,LEO,USA,USA,Commercial,Communications,Falcon,1 53431U 22097AV  25067.80770971 -.00000001  00000+0  18062-4 0  9997,2 53431  53.2179 306.2433 0001492  95.8615 264.2547 15.08835017143079,15.08835017,0.0001492,LEO
53432,STARLINK-4557,2022,95.44,260.0,+,53.22,Active,1,LEO,USA,USA,Commercial,Communications,Falcon,1 53432U 22097AW  25066.89508409 -.00000011  00000+0  17398-4 0  9993,2 53432  53.2174 310.4875 0001391  91.0721 269.0430 15.08836130143415,15.0883613,0.0001391,LEO
53433,STARLINK-4549,2022,95.44,260.0,+,53.22,Active,1,LEO,USA,USA,Commercial,Communications,Falcon,1 53433U 22097AX  25067.44711654  .00001014  00000+0  81829-4 0  9997,2 53433  53.2170 308.2462 0001393  91.8954 268.2198 15.08836427143014,15.08836427,0.0001393,LEO
53434,STARLINK-4498,2022,95.44,260.0,+,53.22,Active,1,LEO,USA,USA,Commercial,Communications,Falcon,1 53434U 22097AY  25067.81876430  .00002203  00000+0  15651-3 0  9993,2 53434  53.2174 306.3017 0001426  84.1230 275.9925 15.08832284143079,15.08832284,0.0001426,LEO
53435,STARLINK-4542,2022,95.44,260.0,+,53.22,Active,1,LEO,USA,USA,Commercial,Communications,Falcon,1 53435U 22097AZ  25067.82613617  .00000216  00000+0  31646-4 0  9996,2 53435  53.2195 306.3486 0001634 114.5157 245.6006 15.08833677143071,15.08833677,0.0001634,LEO
53436,STARLINK-4527,2022,95.44,260.0,+,53.22,Active,1,LEO,USA,USA,Commercial,Communications,Falcon,1 53436U 22097BA  25067.08644603 -.00001572  00000+0 -80726-4 0  9995,2 53436  53.2172 309.5525 0001265  82.5263 277.5873 15.08827372143440,15.08827372,0.0001265,LEO
53438,STARLINK-4526,2022,95.44,260.0,+,53.22,Active,1,LEO,USA,USA,Commercial,Communications,Falcon,1 53438U 22097BC  25067.08274940  .00001630  00000+0  12046-3 0  9992,2 53438  53.2170 309.5285 0001511  92.9432 267.1733 15.08842958143458,15.08842958,0.0001511,LEO
53439,STARLINK-4519,2022,95.44,260.0,+,53.22,Active,1,LEO,USA,USA,Commercial,Communications,Falcon,1 53439U 22097BD  25066.89604270  .00004445  00000+0  29721-3 0  9999,2 53439  53.2177 310.4892 0001410  85.0421 275.0732 15.08839785143428,15.08839785,0.000141,LEO
53444,DONGPO 07,2022,94.05,-1.0,+,97.52,Active,0,LEO,PRC,China,Unknown,Unknown,Unknown,1 53444U 22098A   25067.75522862  .00028004  00000+0  93235-3 0  9996,2 53444  97.5239 174.5831 0008570 253.5317 106.4982 15.31065269142805,15.31065269,0.000857,LEO
53445,JILIN-1 GAOFEN 03D09,2022,94.12,-1.0,+,97.53,Active,0,LEO,PRC,China,Unknown,Unknown,Unknown,1 53445U 22098B   25067.82568300  .00027639  00000+0  95140-3 0  9992,2 53445  97.5267 174.6963 0006149 243.5073 116.5536 15.30003637142786,15.30003637,0.0006149,LEO
53446,OBJECT C,2022,94.11,-1.0,+,97.53,Active,0,LEO,PRC,China,Unknown,Unknown,Unknown,1 53446U 22098C   25067.81812973  .00027446  00000+0  94014-3 0  9995,2 53446  97.5294 174.9237 0003929 262.5776  97.5018 15.30174310142788,15.3017431,0.0003929,LEO
53447,DONGPO 06,2022,93.79,-1.0,+,97.52,Active,0,LEO,PRC,China,Unknown,Unknown,Unknown,1 53447U 22098D   25067.80483127  .00033566  00000+0  97588-3 0  9999,2 53447  97.5203 175.1139 0007122 214.4362 145.6420 15.35359514142866,15.35359514,0.0007122,LEO
53448,JILIN-1 GAOFEN 03D43,2022,94.08,-1.0,+,97.53,Active,0,LEO,PRC,China,Unknown,Unknown,Unknown,1 53448U 22098E   25067.79382544  .00027181  00000+0  91913-3 0  9991,2 53448  97.5271 174.7545 0005505 252.8277 107.2361 15.30588820142780,15.3058882,0.0005505,LEO
53449,DONGPO 05,2022,93.99,-1.0,+,97.52,Active,0,LEO,PRC,China,Unknown,Unknown,Unknown,1 53449U 22098F   25067.80840030  .00028497  00000+0  92102-3 0  9995,2 53449  97.5209 174.3184 0004915 232.9520 127.1272 15.32041578142802,15.32041578,0.0004915,LEO
53450,DONGPO 03,2022,93.89,-1.0,+,97.53,Active,0,LEO,PRC,China,Unknown,Unknown,Unknown,1 53450U 22098G   25067.84232322  .00031846  00000+0  97770-3 0  9998,2 53450  97.5276 175.4640 0003590 253.1503 106.9346 15.33666854142832,15.33666854,0.000359,LEO
53451,DONGPO 04,2022,93.81,-1.0,+,97.53,Active,0,LEO,PRC,China,Unknown,Unknown,Unknown,1 53451U 22098H   25067.81930955  .00033322  00000+0  97815-3 0  9994,2 53451  97.5342 176.7765 0004137 251.4365 108.6428 15.35075194142871,15.35075194,0.0004137,LEO
53452,DONGPO 02,2022,94.02,-1.0,+,97.52,Active,0,LEO,PRC,China,Unknown,Unknown,Unknown,1 53452U 22098J   25067.84040846  .00029040  00000+0  95105-3 0  9991,2 53452  97.5208 174.4727 0005096 221.0760 139.0098 15.31612104142812,15.31612104,0.0005096,LEO
53453,DONGPO 01,2022,94.05,-1.0,+,97.53,Active,0,LEO,PRC,China,Unknown,Unknown,Unknown,1 53453U 22098K   25067.75080913  .00027675  00000+0  91874-3 0  9992,2 53453  97.5277 174.9608 0000888 210.9232 149.1956 15.31194012142792,15.31194012,8.88e-05,LEO
